CCSDS_OMM_VERS = 2.0
CREATION_DATE  = 
ORIGINATOR     = 

OBJECT_NAME    = STARLINK-36565
OBJECT_ID      = 2026-014N
CENTER_NAME    = EARTH
REF_FRAME      = TEME
TIME_SYSTEM    = UTC
MEAN_ELEMENT_THEORY = SGP/SGP4

EPOCH          = 2026-02-14T06:00:02.000160
MEAN_MOTION    = 15.75190675
ECCENTRICITY   = .0001369
INCLINATION    = 97.2845
RA_OF_ASC_NODE = 289.0392
ARG_OF_PERICENTER = 95.9671
MEAN_ANOMALY   = 292.5783

EPHEMERIS_TYPE = 0
CLASSIFICATION_TYPE = U
NORAD_CAT_ID   = 67544
ELEMENT_SET_NO = 999
REV_AT_EPOCH   = 492
BSTAR          = -.11300121E-3
MEAN_MOTION_DOT = -.16952E-3
MEAN_MOTION_DDOT = 0

CCSDS_OMM_VERS = 2.0
CREATION_DATE  = 
ORIGINATOR     = 

OBJECT_NAME    = STARLINK-36583
OBJECT_ID      = 2026-014P
CENTER_NAME    = EARTH
REF_FRAME      = TEME
TIME_SYSTEM    = UTC
MEAN_ELEMENT_THEORY = SGP/SGP4

EPOCH          = 2026-02-14T04:55:53.248224
MEAN_MOTION    = 15.75240715
ECCENTRICITY   = .00014119
INCLINATION    = 97.2846
RA_OF_ASC_NODE = 288.9330
ARG_OF_PERICENTER = 98.5834
MEAN_ANOMALY   = 261.5591

EPHEMERIS_TYPE = 0
CLASSIFICATION_TYPE = U
NORAD_CAT_ID   = 67545
ELEMENT_SET_NO = 999
REV_AT_EPOCH   = 487
BSTAR          = .10436758E-2
MEAN_MOTION_DOT = .158817E-2
MEAN_MOTION_DDOT = 0

CCSDS_OMM_VERS = 2.0
CREATION_DATE  = 
ORIGINATOR     = 

OBJECT_NAME    = STARLINK-36580
OBJECT_ID      = 2026-014Q
CENTER_NAME    = EARTH
REF_FRAME      = TEME
TIME_SYSTEM    = UTC
MEAN_ELEMENT_THEORY = SGP/SGP4

EPOCH          = 2026-02-14T06:00:02.000160
MEAN_MOTION    = 15.75187071
ECCENTRICITY   = .00015838
INCLINATION    = 97.2850
RA_OF_ASC_NODE = 289.0250
ARG_OF_PERICENTER = 88.3131
MEAN_ANOMALY   = 266.2337

EPHEMERIS_TYPE = 0
CLASSIFICATION_TYPE = U
NORAD_CAT_ID   = 67546
ELEMENT_SET_NO = 999
REV_AT_EPOCH   = 492
BSTAR          = -.21607127E-4
MEAN_MOTION_DOT = -.3351E-4
MEAN_MOTION_DDOT = 0

CCSDS_OMM_VERS = 2.0
CREATION_DATE  = 
ORIGINATOR     = 

OBJECT_NAME    = STARLINK-36584
OBJECT_ID      = 2026-014R
CENTER_NAME    = EARTH
REF_FRAME      = TEME
TIME_SYSTEM    = UTC
MEAN_ELEMENT_THEORY = SGP/SGP4

EPOCH          = 2026-02-14T05:43:17.285664
MEAN_MOTION    = 15.80856999
ECCENTRICITY   = .0001372
INCLINATION    = 97.2869
RA_OF_ASC_NODE = 289.0360
ARG_OF_PERICENTER = 102.7230
MEAN_ANOMALY   = 257.4192

EPHEMERIS_TYPE = 0
CLASSIFICATION_TYPE = U
NORAD_CAT_ID   = 67547
ELEMENT_SET_NO = 999
REV_AT_EPOCH   = 488
BSTAR          = .77585606E-3
MEAN_MOTION_DOT = .15136E-2
MEAN_MOTION_DDOT = 0

CCSDS_OMM_VERS = 2.0
CREATION_DATE  = 
ORIGINATOR     = 

OBJECT_NAME    = STARLINK-36586
OBJECT_ID      = 2026-014S
CENTER_NAME    = EARTH
REF_FRAME      = TEME
TIME_SYSTEM    = UTC
MEAN_ELEMENT_THEORY = SGP/SGP4

EPOCH          = 2026-02-14T05:41:19.030848
MEAN_MOTION    = 15.80877868
ECCENTRICITY   = .0001504
INCLINATION    = 97.2853
RA_OF_ASC_NODE = 289.0455
ARG_OF_PERICENTER = 72.6857
MEAN_ANOMALY   = 287.4575

EPHEMERIS_TYPE = 0
CLASSIFICATION_TYPE = U
NORAD_CAT_ID   = 67548
ELEMENT_SET_NO = 999
REV_AT_EPOCH   = 488
BSTAR          = .91962361E-3
MEAN_MOTION_DOT = .180204E-2
MEAN_MOTION_DDOT = 0

CCSDS_OMM_VERS = 2.0
CREATION_DATE  = 
ORIGINATOR     = 

OBJECT_NAME    = STARLINK-36564
OBJECT_ID      = 2026-014T
CENTER_NAME    = EARTH
REF_FRAME      = TEME
TIME_SYSTEM    = UTC
MEAN_ELEMENT_THEORY = SGP/SGP4

EPOCH          = 2026-02-14T06:13:08.372352
MEAN_MOTION    = 15.75211752
ECCENTRICITY   = .00017644
INCLINATION    = 97.2844
RA_OF_ASC_NODE = 289.0143
ARG_OF_PERICENTER = 73.6317
MEAN_ANOMALY   = 286.5142

EPHEMERIS_TYPE = 0
CLASSIFICATION_TYPE = U
NORAD_CAT_ID   = 67549
ELEMENT_SET_NO = 999
REV_AT_EPOCH   = 482
BSTAR          = .64520723E-3
MEAN_MOTION_DOT = .97304E-3
MEAN_MOTION_DDOT = 0

CCSDS_OMM_VERS = 2.0
CREATION_DATE  = 
ORIGINATOR     = 

OBJECT_NAME    = STARLINK-36563
OBJECT_ID      = 2026-014U
CENTER_NAME    = EARTH
REF_FRAME      = TEME
TIME_SYSTEM    = UTC
MEAN_ELEMENT_THEORY = SGP/SGP4

EPOCH          = 2026-02-14T06:07:02.446752
MEAN_MOTION    = 15.75187568
ECCENTRICITY   = .00016145
INCLINATION    = 97.2848
RA_OF_ASC_NODE = 289.0196
ARG_OF_PERICENTER = 102.8294
MEAN_ANOMALY   = 257.3152

EPHEMERIS_TYPE = 0
CLASSIFICATION_TYPE = U
NORAD_CAT_ID   = 67550
ELEMENT_SET_NO = 999
REV_AT_EPOCH   = 488
BSTAR          = .27084055E-3
MEAN_MOTION_DOT = .40456E-3
MEAN_MOTION_DDOT = 0

CCSDS_OMM_VERS = 2.0
CREATION_DATE  = 
ORIGINATOR     = 

OBJECT_NAME    = STARLINK-36566
OBJECT_ID      = 2026-014V
CENTER_NAME    = EARTH
REF_FRAME      = TEME
TIME_SYSTEM    = UTC
MEAN_ELEMENT_THEORY = SGP/SGP4

EPOCH          = 2026-02-14T06:03:59.568192
MEAN_MOTION    = 15.75213756
ECCENTRICITY   = .00016475
INCLINATION    = 97.2848
RA_OF_ASC_NODE = 289.0226
ARG_OF_PERICENTER = 85.0355
MEAN_ANOMALY   = 275.1098

EPHEMERIS_TYPE = 0
CLASSIFICATION_TYPE = U
NORAD_CAT_ID   = 67551
ELEMENT_SET_NO = 999
REV_AT_EPOCH   = 487
BSTAR          = .60993088E-3
MEAN_MOTION_DOT = .91926E-3
MEAN_MOTION_DDOT = 0

CCSDS_OMM_VERS = 2.0
CREATION_DATE  = 
ORIGINATOR     = 

OBJECT_NAME    = STARLINK-36567
OBJECT_ID      = 2026-014W
CENTER_NAME    = EARTH
REF_FRAME      = TEME
TIME_SYSTEM    = UTC
MEAN_ELEMENT_THEORY = SGP/SGP4

EPOCH          = 2026-02-14T03:13:13.244448
MEAN_MOTION    = 15.75290160
ECCENTRICITY   = .00011786
INCLINATION    = 97.2849
RA_OF_ASC_NODE = 288.8738
ARG_OF_PERICENTER = 112.3359
MEAN_ANOMALY   = 247.8032

EPHEMERIS_TYPE = 0
CLASSIFICATION_TYPE = U
NORAD_CAT_ID   = 67552
ELEMENT_SET_NO = 999
REV_AT_EPOCH   = 485
BSTAR          = .15140323E-2
MEAN_MOTION_DOT = .232974E-2
MEAN_MOTION_DDOT = 0

CCSDS_OMM_VERS = 2.0
CREATION_DATE  = 
ORIGINATOR     = 

OBJECT_NAME    = STARLINK-36569
OBJECT_ID      = 2026-014X
CENTER_NAME    = EARTH
REF_FRAME      = TEME
TIME_SYSTEM    = UTC
MEAN_ELEMENT_THEORY = SGP/SGP4

EPOCH          = 2026-02-14T06:00:02.000160
MEAN_MOTION    = 15.75233063
ECCENTRICITY   = .00013114
INCLINATION    = 97.2855
RA_OF_ASC_NODE = 289.0583
ARG_OF_PERICENTER = 114.9353
MEAN_ANOMALY   = 329.5783

EPHEMERIS_TYPE = 0
CLASSIFICATION_TYPE = U
NORAD_CAT_ID   = 67553
ELEMENT_SET_NO = 999
REV_AT_EPOCH   = 492
BSTAR          = -.38317126E-3
MEAN_MOTION_DOT = -.57008E-3
MEAN_MOTION_DDOT = 0

CCSDS_OMM_VERS = 2.0
CREATION_DATE  = 
ORIGINATOR     = 

OBJECT_NAME    = STARLINK-36395
OBJECT_ID      = 2026-014Y
CENTER_NAME    = EARTH
REF_FRAME      = TEME
TIME_SYSTEM    = UTC
MEAN_ELEMENT_THEORY = SGP/SGP4

EPOCH          = 2026-02-14T06:08:03.516864
MEAN_MOTION    = 15.75232755
ECCENTRICITY   = .00016329
INCLINATION    = 97.2854
RA_OF_ASC_NODE = 289.0155
ARG_OF_PERICENTER = 75.0393
MEAN_ANOMALY   = 285.1053

EPHEMERIS_TYPE = 0
CLASSIFICATION_TYPE = U
NORAD_CAT_ID   = 67554
ELEMENT_SET_NO = 999
REV_AT_EPOCH   = 487
BSTAR          = .1063105E-2
MEAN_MOTION_DOT = .161779E-2
MEAN_MOTION_DDOT = 0

CCSDS_OMM_VERS = 2.0
CREATION_DATE  = 
ORIGINATOR     = 

OBJECT_NAME    = STARLINK-36559
OBJECT_ID      = 2026-014Z
CENTER_NAME    = EARTH
REF_FRAME      = TEME
TIME_SYSTEM    = UTC
MEAN_ELEMENT_THEORY = SGP/SGP4

EPOCH          = 2026-02-14T06:10:05.458368
MEAN_MOTION    = 15.75232632
ECCENTRICITY   = .0001701
INCLINATION    = 97.2853
RA_OF_ASC_NODE = 289.0137
ARG_OF_PERICENTER = 71.0349
MEAN_ANOMALY   = 289.1101

EPHEMERIS_TYPE = 0
CLASSIFICATION_TYPE = U
NORAD_CAT_ID   = 67555
ELEMENT_SET_NO = 999
REV_AT_EPOCH   = 487
BSTAR          = .89607627E-3
MEAN_MOTION_DOT = .135926E-2
MEAN_MOTION_DDOT = 0

