STARLINK-36565          
1 67544U 26014N   26045.25002315 -.00016952  00000+0 -11300-3 0  9996
2 67544  97.2845 289.0392 0001369  95.9671 292.5783 15.75190675  4929
STARLINK-36583          
1 67545U 26014P   26045.20547741  .00158817  00000+0  10437-2 0  9993
2 67545  97.2846 288.9330 0001411  98.5834 261.5591 15.75240715  4877
STARLINK-36580          
1 67546U 26014Q   26045.25002315 -.00003351  00000+0 -21607-4 0  9999
2 67546  97.2850 289.0250 0001583  88.3131 266.2337 15.75187071  4924
STARLINK-36584          
1 67547U 26014R   26045.23839451  .00151360  00000+0  77586-3 0  9995
2 67547  97.2869 289.0360 0001372 102.7230 257.4192 15.80856999  4888
STARLINK-36586          
1 67548U 26014S   26045.23702582  .00180204  00000+0  91962-3 0  9993
2 67548  97.2853 289.0455 0001504  72.6857 287.4575 15.80877868  4880
STARLINK-36564          
1 67549U 26014T   26045.25912468  .00097304  00000+0  64521-3 0  9991
2 67549  97.2844 289.0143 0001764  73.6317 286.5142 15.75211752  4827
STARLINK-36563          
1 67550U 26014U   26045.25488943  .00040456  00000+0  27084-3 0  9998
2 67550  97.2848 289.0196 0001614 102.8294 257.3152 15.75187568  4884
STARLINK-36566          
1 67551U 26014V   26045.25277278  .00091926  00000+0  60993-3 0  9990
2 67551  97.2848 289.0226 0001647  85.0355 275.1098 15.75213756  4870
STARLINK-36567          
1 67552U 26014W   26045.13418107  .00232974  00000+0  15140-2 0  9999
2 67552  97.2849 288.8738 0001178 112.3359 247.8032 15.75290160  4850
STARLINK-36569          
1 67553U 26014X   26045.25002315 -.00057008  00000+0 -38317-3 0  9990
2 67553  97.2855 289.0583 0001311 114.9353 329.5783 15.75233063  4928
STARLINK-36395          
1 67554U 26014Y   26045.25559626  .00161779  00000+0  10631-2 0  9990
2 67554  97.2854 289.0155 0001632  75.0393 285.1053 15.75232755  4878
STARLINK-36559          
1 67555U 26014Z   26045.25700762  .00135926  00000+0  89608-3 0  9996
2 67555  97.2853 289.0137 0001701  71.0349 289.1101 15.75232632  4874
